*******************************************************************************
JPL/HORIZONS             4607 Seilandfarm (1987 WR)        2023-Sep-05 05:19:11
Rec #:    4607 (+COV) Soln.date: 2023-Aug-23_19:55:42   # obs: 3946 (1975-2023)
 
IAU76/J2000 helio. ecliptic osc. elements (au, days, deg., period=Julian yrs):
 
  EPOCH=  2457483.5 ! 2016-Apr-05.00 (TDB)         Residual RMS= .28118
   EC= .01962031019223298  QR= 2.219886667531656   TP= 2457224.4172036825
   OM= 250.5168604447172   W=  220.9821775820783   IN= 2.251568028979209
   A= 2.264313194785718    MA= 74.94417854758902   ADIST= 2.30873972203978
   PER= 3.40732            N= .289267291           ANGMOM= .025880108
   DAN= 2.29747            DDN= 2.23041            L= 111.4771306
   B= -1.4764162           MOID= 1.23652005        TP= 2015-Jul-20.9172036825
 
Asteroid physical parameters (km, seconds, rotational period in hours):
   GM= n.a.                RAD= 3.6945             ROTPER= 3.9683
   H= 13.33                G= .150                 B-V= n.a.
                           ALBEDO= .224            STYP= L

ASTEROID comments: 
1: soln ref.= JPL#49, OCC=0
2: source=ORB
*******************************************************************************


*******************************************************************************
Ephemeris / API_USER Tue Sep  5 05:19:11 2023 Pasadena, USA      / Horizons
*******************************************************************************
Target body name: 4607 Seilandfarm (1987 WR)      {source: JPL#49}
Center body name: Solar System Barycenter (0)     {source: DE441}
Center-site name: BODY CENTER
*******************************************************************************
Start time      : A.D. 2023-Aug-12 00:00:00.0000 TDB
Stop  time      : A.D. 2023-Aug-13 00:00:00.0000 TDB
Step-size       : 2880 minutes
*******************************************************************************
Center geodetic : 0.0, 0.0, 0.0                   {E-lon(deg),Lat(deg),Alt(km)}
Center cylindric: 0.0, 0.0, 0.0                   {E-lon(deg),Dxy(km),Dz(km)}
Center radii    : (undefined)
Small perturbers: Yes                             {source: SB441-N16}
Output units    : KM-S
Calendar mode   : Mixed Julian/Gregorian
Output type     : GEOMETRIC cartesian states
Output format   : 2 (position and velocity)
Reference frame : Ecliptic of J2000.0
*******************************************************************************
Initial IAU76/J2000 heliocentric ecliptic osculating elements (au, days, deg.):
  EPOCH=  2457483.5 ! 2016-Apr-05.00 (TDB)         Residual RMS= .28118        
   EC= .01962031019223298  QR= 2.219886667531656   TP= 2457224.4172036825      
   OM= 250.5168604447172   W=  220.9821775820783   IN= 2.251568028979209       
  Equivalent ICRF heliocentric cartesian coordinates (au, au/d):
   X=-2.226643125005610E+00  Y=-2.795797564530494E-01  Z=-2.063294645373308E-01
  VX= 1.502729360038319E-03 VY=-1.052749022391929E-02 VZ=-4.340783547240545E-03
Asteroid physical parameters (km, seconds, rotational period in hours):        
   GM= n.a.                RAD= 3.6945             ROTPER= 3.9683              
   H= 13.33                G= .150                 B-V= n.a.                   
                           ALBEDO= .224            STYP= L                     
*******************************************************************************
JDTDB
   X     Y     Z
   VX    VY    VZ
*******************************************************************************
$$SOE
2460168.500000000 = A.D. 2023-Aug-12 00:00:00.0000 TDB 
 X =-1.464268683614643E+08 Y =-3.110822441210870E+08 Z =-1.246869324319914E+06
 VX= 1.757365730761588E+01 VY=-8.541040487295653E+00 VZ= 7.629881209741258E-01
$$EOE
*******************************************************************************
 
TIME

  Barycentric Dynamical Time ("TDB" or T_eph) output was requested. This
continuous coordinate time is equivalent to the relativistic proper time
of a clock at rest in a reference frame co-moving with the solar system
barycenter but outside the system's gravity well. It is the independent
variable in the solar system relativistic equations of motion.

  TDB runs at a uniform rate of one SI second per second and is independent
of irregularities in Earth's rotation.
 
CALENDAR SYSTEM

  Mixed calendar mode was active such that calendar dates after AD 1582-Oct-15
(if any) are in the modern Gregorian system. Dates prior to 1582-Oct-5 (if any)
are in the Julian calendar system, which is automatically extended for dates
prior to its adoption on 45-Jan-1 BC.  The Julian calendar is useful for
matching historical dates. The Gregorian calendar more accurately corresponds
to the Earth's orbital motion and seasons. A "Gregorian-only" calendar mode is
available if such physical events are the primary interest.

REFERENCE FRAME AND COORDINATES

  Ecliptic at the standard reference epoch

    Reference epoch: J2000.0
    X-Y plane: adopted Earth orbital plane at the reference epoch
               Note: IAU76 obliquity of 84381.448 arcseconds wrt ICRF X-Y plane
    X-axis   : ICRF
    Z-axis   : perpendicular to the X-Y plane in the directional (+ or -) sense
               of Earth's north pole at the reference epoch.

  Symbol meaning:

    JDTDB    Julian Day Number, Barycentric Dynamical Time
      X      X-component of position vector (km)
      Y      Y-component of position vector (km)
      Z      Z-component of position vector (km)
      VX     X-component of velocity vector (km/sec)                           
      VY     Y-component of velocity vector (km/sec)                           
      VZ     Z-component of velocity vector (km/sec)                           

ABERRATIONS AND CORRECTIONS

 Geometric state vectors have NO corrections or aberrations applied.

Computations by ...

    Solar System Dynamics Group, Horizons On-Line Ephemeris System
    4800 Oak Grove Drive, Jet Propulsion Laboratory
    Pasadena, CA  91109   USA

    General site: https://ssd.jpl.nasa.gov/
    Mailing list: https://ssd.jpl.nasa.gov/email_list.html
    System news : https://ssd.jpl.nasa.gov/horizons/news.html
    User Guide  : https://ssd.jpl.nasa.gov/horizons/manual.html
    Connect     : browser        https://ssd.jpl.nasa.gov/horizons/app.html#/x
                  API            https://ssd-api.jpl.nasa.gov/doc/horizons.html
                  command-line   telnet ssd.jpl.nasa.gov 6775
                  e-mail/batch   https://ssd.jpl.nasa.gov/ftp/ssd/hrzn_batch.txt
                  scripts        https://ssd.jpl.nasa.gov/ftp/ssd/SCRIPTS
    Author      : Jon.D.Giorgini@jpl.nasa.gov
*******************************************************************************
